{"type": "FeatureCollection", "features": [ {"type": "Feature", "properties": {"norad_id": 32153, "name": "FENGYUN 1C DEB", "group": "fengyun-1c-debris", "lat": 56.28834119694947, "lon": 171.75750482070322, "alt_km": 871.5323941176666, "timestamp": "2025-12-08T08:59:01.051535+00:00", "meta": {"OBJECT_NAME": "FENGYUN 1C DEB", "OBJECT_ID": "1999-025CSX", "EPOCH": "2025-12-07T07:50:45.013632", "MEAN_MOTION": 14.48694521, "ECCENTRICITY": 0.0207121, "INCLINATION": 98.7686, "RA_OF_ASC_NODE": 184.045, "ARG_OF_PERICENTER": 237.649, "MEAN_ANOMALY": 120.4503, "EPHEMERIS_TYPE": 0, "CLASSIFICATION_TYPE": "U", "NORAD_CAT_ID": 32153, "ELEMENT_SET_NO": 999, "REV_AT_EPOCH": 97145, "BSTAR": 0.00057009101, "MEAN_MOTION_DOT": 2.761e-05, "MEAN_MOTION_DDOT": 0}, "tle": {"line1": "1 32153U 99025CSX 25341.32690988  .00002761  00000+0  57009-3 0  9998", "line2": "2 32153  98.7686 184.0450 0207121 237.6490 120.4503 14.48694521971451"}}, "geometry": {"type": "Point", "coordinates": [171.75750482070322, 56.28834119694947]}}, {"type": "Feature", "properties": {"norad_id": 32155, "name": "FENGYUN 1C DEB", "group": "fengyun-1c-debris", "lat": -71.23085363139383, "lon": -60.51783563893586, "alt_km": 747.716907298427, "timestamp": "2025-12-08T08:59:01.051546+00:00", "meta": {"OBJECT_NAME": "FENGYUN 1C DEB", "OBJECT_ID": "1999-025CSZ", "EPOCH": "2025-12-04T13:09:10.027872", "MEAN_MOTION": 14.32912866, "ECCENTRICITY": 0.0069286, "INCLINATION": 98.9526, "RA_OF_ASC_NODE": 267.8922, "ARG_OF_PERICENTER": 264.2615, "MEAN_ANOMALY": 95.0665, "EPHEMERIS_TYPE": 0, "CLASSIFICATION_TYPE": "U", "NORAD_CAT_ID": 32155, "ELEMENT_SET_NO": 999, "REV_AT_EPOCH": 70105, "BSTAR": 0.001161, "MEAN_MOTION_DOT": 3.211e-05, "MEAN_MOTION_DDOT": 0}, "tle": {"line1": "1 32155U 99025CSZ 25338.54803273  .00003211  00000+0  11610-2 0  9991", "line2": "2 32155  98.9526 267.8922 0069286 264.2615  95.0665 14.32912866701056"}}, "geometry": {"type": "Point", "coordinates": [-60.51783563893586, -71.23085363139383]}}, {"type": "Feature", "properties": {"norad_id": 32156, "name": "FENGYUN 1C DEB", "group": "fengyun-1c-debris", "lat": -50.76592033062989, "lon": 163.25393912424101, "alt_km": 822.6463796877251, "timestamp": "2025-12-08T08:59:01.051556+00:00", "meta": {"OBJECT_NAME": "FENGYUN 1C DEB", "OBJECT_ID": "1999-025CTA", "EPOCH": "2025-12-07T06:23:36.267936", "MEAN_MOTION": 14.31937102, "ECCENTRICITY": 0.00823152, "INCLINATION": 99.3546, "RA_OF_ASC_NODE": 150.4141, "ARG_OF_PERICENTER": 73.1229, "MEAN_ANOMALY": 287.8958, "EPHEMERIS_TYPE": 0, "CLASSIFICATION_TYPE": "U", "NORAD_CAT_ID": 32156, "ELEMENT_SET_NO": 999, "REV_AT_EPOCH": 64742, "BSTAR": 0.00053657025, "MEAN_MOTION_DOT": 1.443e-05, "MEAN_MOTION_DDOT": 0}, "tle": {"line1": "1 32156U 99025CTA 25341.26639199  .00001443  00000+0  53657-3 0  9992", "line2": "2 32156  99.3546 150.4141 0082315  73.1229 287.8958 14.31937102647425"}}, "geometry": {"type": "Point", "coordinates": [163.25393912424101, -50.76592033062989]}}, {"type": "Feature", "properties": {"norad_id": 32160, "name": "FENGYUN 1C DEB", "group": "fengyun-1c-debris", "lat": 27.1534599110685, "lon": 134.79768464066643, "alt_km": 708.8613125499223, "timestamp": "2025-12-08T08:59:01.051566+00:00", "meta": {"OBJECT_NAME": "FENGYUN 1C DEB", "OBJECT_ID": "1999-025CTE", "EPOCH": "2025-12-06T16:46:02.572032", "MEAN_MOTION": 14.37543065, "ECCENTRICITY": 0.00823046, "INCLINATION": 98.8811, "RA_OF_ASC_NODE": 137.6674, "ARG_OF_PERICENTER": 16.7253, "MEAN_ANOMALY": 343.6617, "EPHEMERIS_TYPE": 0, "CLASSIFICATION_TYPE": "U", "NORAD_CAT_ID": 32160, "ELEMENT_SET_NO": 999, "REV_AT_EPOCH": 95800, "BSTAR": 0.00076170086, "MEAN_MOTION_DOT": 2.326e-05, "MEAN_MOTION_DDOT": 0}, "tle": {"line1": "1 32160U 99025CTE 25340.69864088  .00002326  00000+0  76170-3 0  9996", "line2": "2 32160  98.8811 137.6674 0082304  16.7253 343.6617 14.37543065958004"}}, "geometry": {"type": "Point", "coordinates": [134.79768464066643, 27.1534599110685]}}, {"type": "Feature", "properties": {"norad_id": 32161, "name": "FENGYUN 1C DEB", "group": "fengyun-1c-debris", "lat": 27.20489571495362, "lon": 82.55958687159948, "alt_km": 893.6560694332475, "timestamp": "2025-12-08T08:59:01.051576+00:00", "meta": {"OBJECT_NAME": "FENGYUN 1C DEB", "OBJECT_ID": "1999-025CTF", "EPOCH": "2025-12-03T02:05:41.290080", "MEAN_MOTION": 14.01850718, "ECCENTRICITY": 0.01352524, "INCLINATION": 98.8291, "RA_OF_ASC_NODE": 82.0226, "ARG_OF_PERICENTER": 307.2576, "MEAN_ANOMALY": 51.6317, "EPHEMERIS_TYPE": 0, "CLASSIFICATION_TYPE": "U", "NORAD_CAT_ID": 32161, "ELEMENT_SET_NO": 999, "REV_AT_EPOCH": 63294, "BSTAR": 0.00046609948, "MEAN_MOTION_DOT": 7.24e-06, "MEAN_MOTION_DDOT": 0}, "tle": {"line1": "1 32161U 99025CTF 25337.08728345  .00000724  00000+0  46610-3 0  9997", "line2": "2 32161  98.8291  82.0226 0135252 307.2576  51.6317 14.01850718632942"}}, "geometry": {"type": "Point", "coordinates": [82.55958687159948, 27.20489571495362]}}, {"type": "Feature", "properties": {"norad_id": 32162, "name": "FENGYUN 1C DEB", "group": "fengyun-1c-debris", "lat": 0.42272957238476233, "lon": -153.0369094359792, "alt_km": 656.0764710006406, "timestamp": "2025-12-08T08:59:01.051587+00:00", "meta": {"OBJECT_NAME": "FENGYUN 1C DEB", "OBJECT_ID": "1999-025CTG", "EPOCH": "2025-12-06T21:40:12.381312", "MEAN_MOTION": 14.6191306, "ECCENTRICITY": 0.00478583, "INCLINATION": 99.464, "RA_OF_ASC_NODE": 25.2099, "ARG_OF_PERICENTER": 188.3151, "MEAN_ANOMALY": 171.7259, "EPHEMERIS_TYPE": 0, "CLASSIFICATION_TYPE": "U", "NORAD_CAT_ID": 32162, "ELEMENT_SET_NO": 999, "REV_AT_EPOCH": 94833, "BSTAR": 0.0022640129, "MEAN_MOTION_DOT": 0.00011472, "MEAN_MOTION_DDOT": 0}, "tle": {"line1": "1 32162U 99025CTG 25340.90292108  .00011472  00000+0  22640-2 0  9994", "line2": "2 32162  99.4640  25.2099 0047858 188.3151 171.7259 14.61913060948334"}}, "geometry": {"type": "Point", "coordinates": [-153.0369094359792, 0.42272957238476233]}}, {"type": "Feature", "properties": {"norad_id": 32163, "name": "FENGYUN 1C DEB", "group": "fengyun-1c-debris", "lat": -39.916852868233974, "lon": -4.2202704405763924, "alt_km": 753.108150538802, "timestamp": "2025-12-08T08:59:01.051597+00:00", "meta": {"OBJECT_NAME": "FENGYUN 1C DEB", "OBJECT_ID": "1999-025CTH", "EPOCH": "2025-12-07T06:32:45.701088", "MEAN_MOTION": 14.43072737, "ECCENTRICITY": 0.00518635, "INCLINATION": 99.5458, "RA_OF_ASC_NODE": 346.4539, "ARG_OF_PERICENTER": 50.4255, "MEAN_ANOMALY": 310.1496, "EPHEMERIS_TYPE": 0, "CLASSIFICATION_TYPE": "U", "NORAD_CAT_ID": 32163, "ELEMENT_SET_NO": 999, "REV_AT_EPOCH": 60897, "BSTAR": 0.0016245294, "MEAN_MOTION_DOT": 5.487e-05, "MEAN_MOTION_DDOT": 0}, "tle": {"line1": "1 32163U 99025CTH 25341.27275117  .00005487  00000+0  16245-2 0  9990", "line2": "2 32163  99.5458 346.4539 0051863  50.4255 310.1496 14.43072737608977"}}, "geometry": {"type": "Point", "coordinates": [-4.2202704405763924, -39.916852868233974]}}, {"type": "Feature", "properties": {"norad_id": 32167, "name": "FENGYUN 1C DEB", "group": "fengyun-1c-debris", "lat": 7.036340437163693, "lon": 158.0549417896467, "alt_km": 813.9770871782221, "timestamp": "2025-12-08T08:59:01.051607+00:00", "meta": {"OBJECT_NAME": "FENGYUN 1C DEB", "OBJECT_ID": "1999-025CTM", "EPOCH": "2025-12-07T05:20:43.611072", "MEAN_MOTION": 14.30962446, "ECCENTRICITY": 0.01652532, "INCLINATION": 98.4715, "RA_OF_ASC_NODE": 335.8779, "ARG_OF_PERICENTER": 73.8008, "MEAN_ANOMALY": 288.1289, "EPHEMERIS_TYPE": 0, "CLASSIFICATION_TYPE": "U", "NORAD_CAT_ID": 32167, "ELEMENT_SET_NO": 999, "REV_AT_EPOCH": 62596, "BSTAR": 0.00060408608, "MEAN_MOTION_DOT": 1.8e-05, "MEAN_MOTION_DDOT": 0}, "tle": {"line1": "1 32167U 99025CTM 25341.22272698  .00001800  00000+0  60409-3 0  9997", "line2": "2 32167  98.4715 335.8779 0165253  73.8008 288.1289 14.30962446625960"}}, "geometry": {"type": "Point", "coordinates": [158.0549417896467, 7.036340437163693]}}, {"type": "Feature", "properties": {"norad_id": 32168, "name": "FENGYUN 1C DEB", "group": "fengyun-1c-debris", "lat": 45.22409179455538, "lon": 38.3629883007543, "alt_km": 1102.5710235797724, "timestamp": "2025-12-08T08:59:01.051617+00:00", "meta": {"OBJECT_NAME": "FENGYUN 1C DEB", "OBJECT_ID": "1999-025CTN", "EPOCH": "2025-12-07T22:21:30.671136", "MEAN_MOTION": 13.86058746, "ECCENTRICITY": 0.02429399, "INCLINATION": 101.6557, "RA_OF_ASC_NODE": 49.82, "ARG_OF_PERICENTER": 249.7013, "MEAN_ANOMALY": 107.7874, "EPHEMERIS_TYPE": 0, "CLASSIFICATION_TYPE": "U", "NORAD_CAT_ID": 32168, "ELEMENT_SET_NO": 999, "REV_AT_EPOCH": 63413, "BSTAR": 0.0056280421, "MEAN_MOTION_DOT": 8.114e-05, "MEAN_MOTION_DDOT": 0}, "tle": {"line1": "1 32168U 99025CTN 25341.93160499  .00008114  00000+0  56280-2 0  9997", "line2": "2 32168 101.6557  49.8200 0242939 249.7013 107.7874 13.86058746634134"}}, "geometry": {"type": "Point", "coordinates": [38.3629883007543, 45.22409179455538]}}, {"type": "Feature", "properties": {"norad_id": 32169, "name": "FENGYUN 1C DEB", "group": "fengyun-1c-debris", "lat": 42.93195408221525, "lon": -1.1004826905054466, "alt_km": 642.0274767154715, "timestamp": "2025-12-08T08:59:01.051627+00:00", "meta": {"OBJECT_NAME": "FENGYUN 1C DEB", "OBJECT_ID": "1999-025CTP", "EPOCH": "2025-12-07T19:16:24.004704", "MEAN_MOTION": 14.6737395, "ECCENTRICITY": 0.00336882, "INCLINATION": 98.5576, "RA_OF_ASC_NODE": 170.2505, "ARG_OF_PERICENTER": 136.362, "MEAN_ANOMALY": 224.0256, "EPHEMERIS_TYPE": 0, "CLASSIFICATION_TYPE": "U", "NORAD_CAT_ID": 32169, "ELEMENT_SET_NO": 999, "REV_AT_EPOCH": 96546, "BSTAR": 0.0073571024, "MEAN_MOTION_DOT": 0.00042124, "MEAN_MOTION_DDOT": 0}, "tle": {"line1": "1 32169U 99025CTP 25341.80305561  .00042124  00000+0  73571-2 0  9996", "line2": "2 32169  98.5576 170.2505 0033688 136.3620 224.0256 14.67373950965468"}}, "geometry": {"type": "Point", "coordinates": [-1.1004826905054466, 42.93195408221525]}}]}